[{"OBJECT_NAME":"STARLINK-30306","OBJECT_ID":"2023-122B","EPOCH":"2026-03-09T02:09:34.242624","MEAN_MOTION":15.26746046,"ECCENTRICITY":0.00014558,"INCLINATION":43.0009,"RA_OF_ASC_NODE":96.0257,"ARG_OF_PERICENTER":254.7696,"MEAN_ANOMALY":105.2994,"EPHEMERIS_TYPE":0,"CLASSIFICATION_TYPE":"U","NORAD_CAT_ID":57633,"ELEMENT_SET_NO":999,"REV_AT_EPOCH":14211,"BSTAR":7.8192912e-5,"MEAN_MOTION_DOT":1.839e-5,"MEAN_MOTION_DDOT":0},{"OBJECT_NAME":"UHETSAT","OBJECT_ID":"2023-185E","EPOCH":"2026-03-09T22:39:26.455680","MEAN_MOTION":15.29797662,"ECCENTRICITY":0.00118435,"INCLINATION":97.3584,"RA_OF_ASC_NODE":137.3576,"ARG_OF_PERICENTER":307.7346,"MEAN_ANOMALY":52.2821,"EPHEMERIS_TYPE":0,"CLASSIFICATION_TYPE":"U","NORAD_CAT_ID":58466,"ELEMENT_SET_NO":999,"REV_AT_EPOCH":12611,"BSTAR":0.00030513019,"MEAN_MOTION_DOT":8.749e-5,"MEAN_MOTION_DDOT":0}]
